ONEWEB-0208             
1 48243U 21031AK  26102.08972505  .00000256  00000+0  65483-3 0  9996
2 48243  87.8939 302.8983 0001735  78.4604 281.6720 13.14501434239629
ONEWEB-0200             
1 48244U 21031AL  26101.97712435 -.00000083  00000+0 -25794-3 0  9999
2 48244  87.8930 302.9083 0001675  84.7551 275.3769 13.14501525239531
ONEWEB-0217             
1 48245U 21031AM  26102.29745654  .00000116  00000+0  27886-3 0  9994
2 48245  87.8933 302.8453 0001754  76.7007 283.4319 13.14501735239523
ONEWEB-0211             
1 48767U 21045A   26102.28159383  .00000065  00000+0  13748-3 0  9990
2 48767  87.8937 272.2451 0002120  77.0849 283.0519 13.16193160235772
ONEWEB-0223             
1 48768U 21045B   26102.17550500 -.00000022  00000+0 -93797-4 0  9993
2 48768  87.8941 272.3570 0002123  86.9603 273.1770 13.15547463235723
ONEWEB-0230             
1 48769U 21045C   26102.22304376  .00000164  00000+0  40268-3 0  9997
2 48769  87.8931 272.3674 0001733  98.8721 261.2605 13.15547240235994
ONEWEB-0237             
1 48770U 21045D   26101.75560711  .00000070  00000+0  15091-3 0  9995
2 48770  87.8932 272.4624 0002045  93.7637 266.3728 13.15546850235651
ONEWEB-0235             
1 48771U 21045E   26102.18658983 -.00000057  00000+0 -18502-3 0  9990
2 48771  87.8942 272.3553 0002155  89.1287 271.0090 13.15547793235703
ONEWEB-0242             
1 48772U 21045F   26102.18024745  .00000024  00000+0  29536-4 0  9996
2 48772  87.8947 272.3528 0001945  96.6101 263.5251 13.15548322235743
ONEWEB-0241             
1 48773U 21045G   26102.01546616  .00000029  00000+0  42923-4 0  9995
2 48773  87.8935 272.4117 0001987  83.9212 276.2145 13.15547156235639
ONEWEB-0243             
1 48774U 21045H   26102.19928049 -.00000066  00000+0 -20895-3 0  9995
2 48774  87.8934 272.3863 0002316  99.4808 260.6585 13.15547798235688
ONEWEB-0222             
1 48775U 21045J   26101.87839360 -.00000355  00000+0 -97685-3 0  9999
2 48775  87.8941 272.4128 0001874  90.9969 269.1376 13.15548465235688
ONEWEB-0244             
1 48776U 21045K   26102.20878095 -.00000010  00000+0 -61911-4 0  9998
2 48776  87.8946 272.3374 0001932  94.6114 265.5237 13.15547648236290
ONEWEB-0247             
1 48777U 21045L   26102.20561530 -.00000011  00000+0 -64248-4 0  9999
2 48777  87.8931 272.3798 0002607  93.8348 266.3080 13.15547312235736
ONEWEB-0245             
1 48778U 21045M   26102.20085074 -.00000035  00000+0 -12813-3 0  9990
2 48778  87.8941 272.3537 0001796  87.7328 272.4008 13.15547036235705
ONEWEB-0229             
1 48779U 21045N   26102.19609865 -.00000090  00000+0 -27186-3 0  9999
2 48779  87.8943 272.3530 0001937  97.0059 263.1292 13.15547689235732
