[{"OBJECT_NAME":"ONEWEB-0208","OBJECT_ID":"2021-031AK","EPOCH":"2026-04-12T02:09:12.244320","MEAN_MOTION":13.14501434,"ECCENTRICITY":0.0001735,"INCLINATION":87.8939,"RA_OF_ASC_NODE":302.8983,"ARG_OF_PERICENTER":78.4604,"MEAN_ANOMALY":281.672,"EPHEMERIS_TYPE":0,"CLASSIFICATION_TYPE":"U","NORAD_CAT_ID":48243,"ELEMENT_SET_NO":999,"REV_AT_EPOCH":23962,"BSTAR":0.00065483,"MEAN_MOTION_DOT":2.56e-06,"MEAN_MOTION_DDOT":0.0},{"OBJECT_NAME":"ONEWEB-0200","OBJECT_ID":"2021-031AL","EPOCH":"2026-04-11T23:27:03.543840","MEAN_MOTION":13.14501525,"ECCENTRICITY":0.0001675,"INCLINATION":87.893,"RA_OF_ASC_NODE":302.9083,"ARG_OF_PERICENTER":84.7551,"MEAN_ANOMALY":275.3769,"EPHEMERIS_TYPE":0,"CLASSIFICATION_TYPE":"U","NORAD_CAT_ID":48244,"ELEMENT_SET_NO":999,"REV_AT_EPOCH":23953,"BSTAR":-0.00025794,"MEAN_MOTION_DOT":-8.3e-07,"MEAN_MOTION_DDOT":0.0},{"OBJECT_NAME":"ONEWEB-0217","OBJECT_ID":"2021-031AM","EPOCH":"2026-04-12T07:08:20.245056","MEAN_MOTION":13.14501735,"ECCENTRICITY":0.0001754,"INCLINATION":87.8933,"RA_OF_ASC_NODE":302.8453,"ARG_OF_PERICENTER":76.7007,"MEAN_ANOMALY":283.4319,"EPHEMERIS_TYPE":0,"CLASSIFICATION_TYPE":"U","NORAD_CAT_ID":48245,"ELEMENT_SET_NO":999,"REV_AT_EPOCH":23952,"BSTAR":0.00027886,"MEAN_MOTION_DOT":1.16e-06,"MEAN_MOTION_DDOT":0.0},{"OBJECT_NAME":"ONEWEB-0211","OBJECT_ID":"2021-045A","EPOCH":"2026-04-12T06:45:29.706912","MEAN_MOTION":13.1619316,"ECCENTRICITY":0.000212,"INCLINATION":87.8937,"RA_OF_ASC_NODE":272.2451,"ARG_OF_PERICENTER":77.0849,"MEAN_ANOMALY":283.0519,"EPHEMERIS_TYPE":0,"CLASSIFICATION_TYPE":"U","NORAD_CAT_ID":48767,"ELEMENT_SET_NO":999,"REV_AT_EPOCH":23577,"BSTAR":0.00013748,"MEAN_MOTION_DOT":6.5e-07,"MEAN_MOTION_DDOT":0.0},{"OBJECT_NAME":"ONEWEB-0223","OBJECT_ID":"2021-045B","EPOCH":"2026-04-12T04:12:43.632000","MEAN_MOTION":13.15547463,"ECCENTRICITY":0.0002123,"INCLINATION":87.8941,"RA_OF_ASC_NODE":272.357,"ARG_OF_PERICENTER":86.9603,"MEAN_ANOMALY":273.177,"EPHEMERIS_TYPE":0,"CLASSIFICATION_TYPE":"U","NORAD_CAT_ID":48768,"ELEMENT_SET_NO":999,"REV_AT_EPOCH":23572,"BSTAR":-9.3797e-05,"MEAN_MOTION_DOT":-2.2e-07,"MEAN_MOTION_DDOT":0.0},{"OBJECT_NAME":"ONEWEB-0230","OBJECT_ID":"2021-045C","EPOCH":"2026-04-12T05:21:10.980864","MEAN_MOTION":13.1554724,"ECCENTRICITY":0.0001733,"INCLINATION":87.8931,"RA_OF_ASC_NODE":272.3674,"ARG_OF_PERICENTER":98.8721,"MEAN_ANOMALY":261.2605,"EPHEMERIS_TYPE":0,"CLASSIFICATION_TYPE":"U","NORAD_CAT_ID":48769,"ELEMENT_SET_NO":999,"REV_AT_EPOCH":23599,"BSTAR":0.00040268,"MEAN_MOTION_DOT":1.64e-06,"MEAN_MOTION_DDOT":0.0},{"OBJECT_NAME":"ONEWEB-0237","OBJECT_ID":"2021-045D","EPOCH":"2026-04-11T18:08:04.454304","MEAN_MOTION":13.1554685,"ECCENTRICITY":0.0002045,"INCLINATION":87.8932,"RA_OF_ASC_NODE":272.4624,"ARG_OF_PERICENTER":93.7637,"MEAN_ANOMALY":266.3728,"EPHEMERIS_TYPE":0,"CLASSIFICATION_TYPE":"U","NORAD_CAT_ID":48770,"ELEMENT_SET_NO":999,"REV_AT_EPOCH":23565,"BSTAR":0.00015091,"MEAN_MOTION_DOT":7e-07,"MEAN_MOTION_DDOT":0.0},{"OBJECT_NAME":"ONEWEB-0235","OBJECT_ID":"2021-045E","EPOCH":"2026-04-12T04:28:41.361312","MEAN_MOTION":13.15547793,"ECCENTRICITY":0.0002155,"INCLINATION":87.8942,"RA_OF_ASC_NODE":272.3553,"ARG_OF_PERICENTER":89.1287,"MEAN_ANOMALY":271.009,"EPHEMERIS_TYPE":0,"CLASSIFICATION_TYPE":"U","NORAD_CAT_ID":48771,"ELEMENT_SET_NO":999,"REV_AT_EPOCH":23570,"BSTAR":-0.00018502,"MEAN_MOTION_DOT":-5.7e-07,"MEAN_MOTION_DDOT":0.0},{"OBJECT_NAME":"ONEWEB-0242","OBJECT_ID":"2021-045F","EPOCH":"2026-04-12T04:19:33.379680","MEAN_MOTION":13.15548322,"ECCENTRICITY":0.0001945,"INCLINATION":87.8947,"RA_OF_ASC_NODE":272.3528,"ARG_OF_PERICENTER":96.6101,"MEAN_ANOMALY":263.5251,"EPHEMERIS_TYPE":0,"CLASSIFICATION_TYPE":"U","NORAD_CAT_ID":48772,"ELEMENT_SET_NO":999,"REV_AT_EPOCH":23574,"BSTAR":2.9536000000000003e-05,"MEAN_MOTION_DOT":2.4e-07,"MEAN_MOTION_DDOT":0.0},{"OBJECT_NAME":"ONEWEB-0241","OBJECT_ID":"2021-045G","EPOCH":"2026-04-12T00:22:16.276224","MEAN_MOTION":13.15547156,"ECCENTRICITY":0.0001987,"INCLINATION":87.8935,"RA_OF_ASC_NODE":272.4117,"ARG_OF_PERICENTER":83.9212,"MEAN_ANOMALY":276.2145,"EPHEMERIS_TYPE":0,"CLASSIFICATION_TYPE":"U","NORAD_CAT_ID":48773,"ELEMENT_SET_NO":999,"REV_AT_EPOCH":23563,"BSTAR":4.2923e-05,"MEAN_MOTION_DOT":2.9e-07,"MEAN_MOTION_DDOT":0.0},{"OBJECT_NAME":"ONEWEB-0243","OBJECT_ID":"2021-045H","EPOCH":"2026-04-12T04:46:57.834336","MEAN_MOTION":13.15547798,"ECCENTRICITY":0.0002316,"INCLINATION":87.8934,"RA_OF_ASC_NODE":272.3863,"ARG_OF_PERICENTER":99.4808,"MEAN_ANOMALY":260.6585,"EPHEMERIS_TYPE":0,"CLASSIFICATION_TYPE":"U","NORAD_CAT_ID":48774,"ELEMENT_SET_NO":999,"REV_AT_EPOCH":23568,"BSTAR":-0.00020895,"MEAN_MOTION_DOT":-6.6e-07,"MEAN_MOTION_DDOT":0.0},{"OBJECT_NAME":"ONEWEB-0222","OBJECT_ID":"2021-045J","EPOCH":"2026-04-11T21:04:53.207040","MEAN_MOTION":13.15548465,"ECCENTRICITY":0.0001874,"INCLINATION":87.8941,"RA_OF_ASC_NODE":272.4128,"ARG_OF_PERICENTER":90.9969,"MEAN_ANOMALY":269.1376,"EPHEMERIS_TYPE":0,"CLASSIFICATION_TYPE":"U","NORAD_CAT_ID":48775,"ELEMENT_SET_NO":999,"REV_AT_EPOCH":23568,"BSTAR":-0.00097685,"MEAN_MOTION_DOT":-3.55e-06,"MEAN_MOTION_DDOT":0.0},{"OBJECT_NAME":"ONEWEB-0244","OBJECT_ID":"2021-045K","EPOCH":"2026-04-12T05:00:38.674080","MEAN_MOTION":13.15547648,"ECCENTRICITY":0.0001932,"INCLINATION":87.8946,"RA_OF_ASC_NODE":272.3374,"ARG_OF_PERICENTER":94.6114,"MEAN_ANOMALY":265.5237,"EPHEMERIS_TYPE":0,"CLASSIFICATION_TYPE":"U","NORAD_CAT_ID":48776,"ELEMENT_SET_NO":999,"REV_AT_EPOCH":23629,"BSTAR":-6.191100000000001e-05,"MEAN_MOTION_DOT":-1e-07,"MEAN_MOTION_DDOT":0.0},{"OBJECT_NAME":"ONEWEB-0247","OBJECT_ID":"2021-045L","EPOCH":"2026-04-12T04:56:05.161920","MEAN_MOTION":13.15547312,"ECCENTRICITY":0.0002607,"INCLINATION":87.8931,"RA_OF_ASC_NODE":272.3798,"ARG_OF_PERICENTER":93.8348,"MEAN_ANOMALY":266.308,"EPHEMERIS_TYPE":0,"CLASSIFICATION_TYPE":"U","NORAD_CAT_ID":48777,"ELEMENT_SET_NO":999,"REV_AT_EPOCH":23573,"BSTAR":-6.424800000000001e-05,"MEAN_MOTION_DOT":-1.1e-07,"MEAN_MOTION_DDOT":0.0},{"OBJECT_NAME":"ONEWEB-0245","OBJECT_ID":"2021-045M","EPOCH":"2026-04-12T04:49:13.503936","MEAN_MOTION":13.15547036,"ECCENTRICITY":0.0001796,"INCLINATION":87.8941,"RA_OF_ASC_NODE":272.3537,"ARG_OF_PERICENTER":87.7328,"MEAN_ANOMALY":272.4008,"EPHEMERIS_TYPE":0,"CLASSIFICATION_TYPE":"U","NORAD_CAT_ID":48778,"ELEMENT_SET_NO":999,"REV_AT_EPOCH":23570,"BSTAR":-0.00012813,"MEAN_MOTION_DOT":-3.5e-07,"MEAN_MOTION_DDOT":0.0},{"OBJECT_NAME":"ONEWEB-0229","OBJECT_ID":"2021-045N","EPOCH":"2026-04-12T04:42:22.923360","MEAN_MOTION":13.15547689,"ECCENTRICITY":0.0001937,"INCLINATION":87.8943,"RA_OF_ASC_NODE":272.353,"ARG_OF_PERICENTER":97.0059,"MEAN_ANOMALY":263.1292,"EPHEMERIS_TYPE":0,"CLASSIFICATION_TYPE":"U","NORAD_CAT_ID":48779,"ELEMENT_SET_NO":999,"REV_AT_EPOCH":23573,"BSTAR":-0.00027186,"MEAN_MOTION_DOT":-9e-07,"MEAN_MOTION_DDOT":0.0}]